ONEWEB-0311             
1 49097U 21075Y   24364.73295567  .00000010  00000+0 -74954-5 0  9992
2 49097  87.9104 112.3377 0002061  97.4308 262.7057 13.17648960163244
ONEWEB-0312             
1 49098U 21075Z   24365.05188872  .00000027  00000+0  35339-4 0  9999
2 49098  87.9105 112.3059 0002118 108.5880 251.5481 13.17648890164245
ONEWEB-0313             
1 49099U 21075AA  24364.75306516  .00000031  00000+0  45709-4 0  9990
2 49099  87.9104 112.3810 0001908 105.5894 254.5448 13.17648705163215
ONEWEB-0314             
1 49100U 21075AB  24364.71945747 -.00000017  00000+0 -75733-4 0  9990
2 49100  87.9102 112.3253 0002068 107.3099 252.8259 13.17649077163182
ONEWEB-0315             
1 49101U 21075AC  24364.55813327  .00000499  00000+0  13508-2 0  9993
2 49101  87.8879  97.1112 0001893  93.2275 266.9070 13.12446687166043
ONEWEB-0316             
1 49102U 21075AD  24364.98895156 -.00000251  00000+0 -66893-3 0  9995
2 49102  87.9106  81.7491 0002281  97.2528 262.8863 13.18683854167810
ONEWEB-0317             
1 49103U 21075AE  24364.55164648  .00000357  00000+0  95600-3 0  9997
2 49103  87.8882  97.1252 0001330 119.6039 240.5222 13.12446775165067
ONEWEB-0318             
1 49104U 21075AF  24364.45465800  .00000023  00000+0  25809-4 0  9996
2 49104  87.9106  81.8442 0002002  97.1699 262.9661 13.18685909166693
